{
    "links": {
        "self": "http://www.neowsapp.com/rest/v1/neo/54055114?api_key=iIulBulltgU6a56xZRHN4H3l9WmuAYTsLGpBGhQ2"
    },
    "id": "54055114",
    "neo_reference_id": "54055114",
    "name": "(2020 TK3)",
    "designation": "2020 TK3",
    "nasa_jpl_url": "http://ssd.jpl.nasa.gov/sbdb.cgi?sstr=54055114",
    "absolute_magnitude_h": 27.441,
    "estimated_diameter": {
        "kilometers": {
            "estimated_diameter_min": 0.008636842,
            "estimated_diameter_max": 0.0193125659
        },
        "meters": {
            "estimated_diameter_min": 8.6368420358,
            "estimated_diameter_max": 19.3125659029
        },
        "miles": {
            "estimated_diameter_min": 0.0053666832,
            "estimated_diameter_max": 0.0120002684
        },
        "feet": {
            "estimated_diameter_min": 28.3360968247,
            "estimated_diameter_max": 63.361438717
        }
    },
    "is_potentially_hazardous_asteroid": false,
    "close_approach_data": [
        {
            "close_approach_date": "2013-09-24",
            "close_approach_date_full": "2013-Sep-24 22:34",
            "epoch_date_close_approach": 1380062040000,
            "relative_velocity": {
                "kilometers_per_second": "17.9969612438",
                "kilometers_per_hour": "64789.0604775148",
                "miles_per_hour": "40257.4026061535"
            },
            "miss_distance": {
                "astronomical": "0.2140641224",
                "lunar": "83.2709436136",
                "kilometers": "32023536.754459288",
                "miles": "19898503.0333746544"
            },
            "orbiting_body": "Earth"
        },
        {
            "close_approach_date": "2019-03-18",
            "close_approach_date_full": "2019-Mar-18 00:24",
            "epoch_date_close_approach": 1552868640000,
            "relative_velocity": {
                "kilometers_per_second": "3.1033451816",
                "kilometers_per_hour": "11172.0426536542",
                "miles_per_hour": "6941.8728366553"
            },
            "miss_distance": {
                "astronomical": "1.6634188717",
                "lunar": "647.0699410913",
                "kilometers": "248843920.124123279",
                "miles": "154624441.9344840902"
            },
            "orbiting_body": "Juptr"
        },
        {
            "close_approach_date": "2020-10-17",
            "close_approach_date_full": "2020-Oct-17 21:08",
            "epoch_date_close_approach": 1602968880000,
            "relative_velocity": {
                "kilometers_per_second": "11.0788749132",
                "kilometers_per_hour": "39883.9496874559",
                "miles_per_hour": "24782.3352932973"
            },
            "miss_distance": {
                "astronomical": "0.0032112891",
                "lunar": "1.2491914599",
                "kilometers": "480402.009314217",
                "miles": "298507.9665895146"
            },
            "orbiting_body": "Earth"
        },
        {
            "close_approach_date": "2020-10-18",
            "close_approach_date_full": "2020-Oct-18 02:40",
            "epoch_date_close_approach": 1602988800000,
            "relative_velocity": {
                "kilometers_per_second": "11.9647217937",
                "kilometers_per_hour": "43072.9984572775",
                "miles_per_hour": "26763.8861803011"
            },
            "miss_distance": {
                "astronomical": "0.0016648349",
                "lunar": "0.6476207761",
                "kilometers": "249055.754941663",
                "miles": "154756.0699864294"
            },
            "orbiting_body": "Moon"
        }
    ],
    "orbital_data": {
        "orbit_id": "5",
        "orbit_determination_date": "2020-10-17 08:35:20",
        "first_observation_date": "2020-10-10",
        "last_observation_date": "2020-10-16",
        "data_arc_in_days": 6,
        "observations_used": 29,
        "orbit_uncertainty": "7",
        "minimum_orbit_intersection": ".00133866",
        "jupiter_tisserand_invariant": "3.308",
        "epoch_osculation": "2459000.5",
        "eccentricity": ".6076316745640317",
        "semi_major_axis": "2.313175935309885",
        "inclination": ".8825759375304196",
        "ascending_node_longitude": "29.39968951484509",
        "orbital_period": "1285.02455115916",
        "perihelion_distance": ".9076169681763194",
        "perihelion_argument": "34.93476067253502",
        "aphelion_distance": "3.718734902443452",
        "perihelion_time": "2459169.696231540688",
        "mean_anomaly": "312.5996267544436",
        "mean_motion": ".2801502894829995",
        "equinox": "J2000",
        "orbit_class": {
            "orbit_class_type": "APO",
            "orbit_class_description": "Near-Earth asteroid orbits which cross the Earth’s orbit similar to that of 1862 Apollo",
            "orbit_class_range": "a (semi-major axis) > 1.0 AU; q (perihelion) < 1.017 AU"
        }
    },
    "is_sentry_object": false
}